start=new Date('2022-02-26T00:00:00.000Z').valueOf();
sats=[{"EPOCH":"2022-02-25T19:44:23.469504","OBJECT_ID":"2021-044X","GP_ID":"197034015","CENTER_NAME":"EARTH","MEAN_ELEMENT_THEORY":"SGP4","OBJECT_TYPE":"PAYLOAD","BSTAR":"0.00012775000000","MEAN_MOTION":"15.06392798","EPHEMERIS_TYPE":"0","COUNTRY_CODE":"US","REV_AT_EPOCH":"4171","NORAD_CAT_ID":"48659","RA_OF_ASC_NODE":"253.5846","LAUNCH_DATE":"2021-05-26","REF_FRAME":"TEME","ECCENTRICITY":"0.00013690","OBJECT_NAME":"STARLINK-2717","ELEMENT_SET_NO":"999","FILE":"3323947","APOAPSIS":"548.184","MEAN_MOTION_DDOT":"0.0000000000000","INCLINATION":"53.0535","MEAN_MOTION_DOT":"0.00001622","SEMIMAJOR_AXIS":"6925.371","RCS_SIZE":"LARGE","TIME_SYSTEM":"UTC","TLE_LINE1":"1 48659U 21044X   22056.82249386  .00001622  00000-0  12775-3 0  9996","TLE_LINE2":"2 48659  53.0535 253.5846 0001369  77.5720 282.5422 15.06392798 41713","PERIAPSIS":"546.288","SITE":"AFETR","CLASSIFICATION_TYPE":"U","PERIOD":"95.593","ARG_OF_PERICENTER":"77.5720","MEAN_ANOMALY":"282.5422","DECAY_DATE":null},{"OBJECT_NAME":"STARLINK-2688","ECCENTRICITY":"0.00016110","REF_FRAME":"TEME","RA_OF_ASC_NODE":"253.5971","LAUNCH_DATE":"2021-05-26","NORAD_CAT_ID":"48660","RCS_SIZE":"LARGE","SEMIMAJOR_AXIS":"6925.332","INCLINATION":"53.0551","MEAN_MOTION_DOT":"0.00001884","MEAN_MOTION_DDOT":"0.0000000000000","FILE":"3323947","APOAPSIS":"548.313","ELEMENT_SET_NO":"999","CENTER_NAME":"EARTH","GP_ID":"197034262","OBJECT_ID":"2021-044Y","EPOCH":"2022-02-25T19:39:04.622400","REV_AT_EPOCH":"4171","COUNTRY_CODE":"US","EPHEMERIS_TYPE":"0","MEAN_MOTION":"15.06405297","BSTAR":"0.00014532000000","OBJECT_TYPE":"PAYLOAD","MEAN_ELEMENT_THEORY":"SGP4","PERIOD":"95.592","CLASSIFICATION_TYPE":"U","SITE":"AFETR","DECAY_DATE":null,"MEAN_ANOMALY":"275.0963","ARG_OF_PERICENTER":"85.0210","TIME_SYSTEM":"UTC","PERIAPSIS":"546.082","TLE_LINE2":"2 48660  53.0551 253.5971 0001611  85.0210 275.0963 15.06405297 41716","TLE_LINE1":"1 48660U 21044Y   22056.81880350  .00001884  00000-0  14532-3 0  9992"},{"REV_AT_EPOCH":"4185","EPHEMERIS_TYPE":"0","COUNTRY_CODE":"US","BSTAR":"0.00000772990000","OBJECT_TYPE":"PAYLOAD","MEAN_ELEMENT_THEORY":"SGP4","MEAN_MOTION":"15.06396077","CENTER_NAME":"EARTH","OBJECT_ID":"2021-044Z","EPOCH":"2022-02-25T19:40:25.134240","GP_ID":"197035017","MEAN_MOTION_DDOT":"0.0000000000000","SEMIMAJOR_AXIS":"6925.361","RCS_SIZE":"LARGE","MEAN_MOTION_DOT":"-0.00000166","INCLINATION":"53.0568","ELEMENT_SET_NO":"999","APOAPSIS":"548.478","FILE":"3323947","REF_FRAME":"TEME","ECCENTRICITY":"0.00018090","OBJECT_NAME":"STARLINK-2708","NORAD_CAT_ID":"48661","LAUNCH_DATE":"2021-05-26","RA_OF_ASC_NODE":"243.5904","TLE_LINE2":"2 48661  53.0568 243.5904 0001809  66.0734 294.0444 15.06396077 41854","PERIAPSIS":"545.973","TLE_LINE1":"1 48661U 21044Z   22056.81973535 -.00000166  00000-0  77299-5 0  9995","TIME_SYSTEM":"UTC","DECAY_DATE":null,"ARG_OF_PERICENTER":"66.0734","MEAN_ANOMALY":"294.0444","PERIOD":"95.592","CLASSIFICATION_TYPE":"U","SITE":"AFETR"},{"TIME_SYSTEM":"UTC","PERIAPSIS":"546.167","TLE_LINE2":"2 48662  53.0535 243.6114 0001547  77.9364 282.1798 15.06391844 41859","TLE_LINE1":"1 48662U 21044AA  22056.81604817 -.00000054  00000-0  15292-4 0  9990","PERIOD":"95.593","SITE":"AFETR","CLASSIFICATION_TYPE":"U","DECAY_DATE":null,"MEAN_ANOMALY":"282.1798","ARG_OF_PERICENTER":"77.9364","CENTER_NAME":"EARTH","GP_ID":"197033266","EPOCH":"2022-02-25T19:35:06.561888","OBJECT_ID":"2021-044AA","COUNTRY_CODE":"US","EPHEMERIS_TYPE":"0","REV_AT_EPOCH":"4185","MEAN_MOTION":"15.06391844","MEAN_ELEMENT_THEORY":"SGP4","OBJECT_TYPE":"PAYLOAD","BSTAR":"0.00001529200000","ECCENTRICITY":"0.00015470","OBJECT_NAME":"STARLINK-2726","REF_FRAME":"TEME","RA_OF_ASC_NODE":"243.6114","LAUNCH_DATE":"2021-05-26","NORAD_CAT_ID":"48662","MEAN_MOTION_DOT":"-0.00000054","INCLINATION":"53.0535","RCS_SIZE":"LARGE","SEMIMAJOR_AXIS":"6925.374","MEAN_MOTION_DDOT":"0.0000000000000","FILE":"3323947","APOAPSIS":"548.310","ELEMENT_SET_NO":"999"},{"PERIOD":"95.592","CLASSIFICATION_TYPE":"U","SITE":"AFETR","DECAY_DATE":null,"MEAN_ANOMALY":"286.6029","ARG_OF_PERICENTER":"73.5149","TIME_SYSTEM":"UTC","PERIAPSIS":"546.020","TLE_LINE2":"2 48663  53.0550 243.6153 0001725  73.5149 286.6029 15.06399611 41857","TLE_LINE1":"1 48663U 21044AB  22056.81236024  .00000050  00000-0  22267-4 0  9997","OBJECT_NAME":"STARLINK-2667","ECCENTRICITY":"0.00017250","REF_FRAME":"TEME","LAUNCH_DATE":"2021-05-26","RA_OF_ASC_NODE":"243.6153","NORAD_CAT_ID":"48663","RCS_SIZE":"LARGE","SEMIMAJOR_AXIS":"6925.350","MEAN_MOTION_DOT":"0.00000050","INCLINATION":"53.0550","MEAN_MOTION_DDOT":"0.0000000000000","APOAPSIS":"548.409","FILE":"3323947","ELEMENT_SET_NO":"999","CENTER_NAME":"EARTH","GP_ID":"197033516","OBJECT_ID":"2021-044AB","EPOCH":"2022-02-25T19:29:47.924736","REV_AT_EPOCH":"4185","EPHEMERIS_TYPE":"0","COUNTRY_CODE":"US","MEAN_MOTION":"15.06399611","BSTAR":"0.00002226700000","MEAN_ELEMENT_THEORY":"SGP4","OBJECT_TYPE":"PAYLOAD"},{"EPOCH":"2022-02-25T19:24:29.614176","OBJECT_ID":"2021-044AC","GP_ID":"197034762","CENTER_NAME":"EARTH","OBJECT_TYPE":"PAYLOAD","MEAN_ELEMENT_THEORY":"SGP4","BSTAR":"0.00025985000000","MEAN_MOTION":"15.06400107","COUNTRY_CODE":"US","EPHEMERIS_TYPE":"0","REV_AT_EPOCH":"4185","NORAD_CAT_ID":"48664","RA_OF_ASC_NODE":"243.6478","LAUNCH_DATE":"2021-05-26","REF_FRAME":"TEME","ECCENTRICITY":"0.00016160","OBJECT_NAME":"STARLINK-2709","ELEMENT_SET_NO":"999","FILE":"3323947","APOAPSIS":"548.332","MEAN_MOTION_DDOT":"0.0000000000000","MEAN_MOTION_DOT":"0.00003591","INCLINATION":"53.0548","RCS_SIZE":"LARGE","SEMIMAJOR_AXIS":"6925.348","TIME_SYSTEM":"UTC","TLE_LINE1":"1 48664U 21044AC  22056.80867609  .00003591  00000-0  25985-3 0  9998","TLE_LINE2":"2 48664  53.0548 243.6478 0001616  68.1811 291.9350 15.06400107 41859","PERIAPSIS":"546.094","SITE":"AFETR","CLASSIFICATION_TYPE":"U","PERIOD":"95.592","ARG_OF_PERICENTER":"68.1811","MEAN_ANOMALY":"291.9350","DECAY_DATE":null},{"TLE_LINE2":"2 48665  53.0557 243.2865 0001552  64.2235 295.8914 15.06394214 41863","PERIAPSIS":"546.156","TLE_LINE1":"1 48665U 21044AD  22056.88882934 -.00000161  00000-0  80587-5 0  9997","TIME_SYSTEM":"UTC","DECAY_DATE":null,"ARG_OF_PERICENTER":"64.2235","MEAN_ANOMALY":"295.8914","PERIOD":"95.593","CLASSIFICATION_TYPE":"U","SITE":"AFETR","REV_AT_EPOCH":"4186","COUNTRY_CODE":"US","EPHEMERIS_TYPE":"0","BSTAR":"0.00000805870000","OBJECT_TYPE":"PAYLOAD","MEAN_ELEMENT_THEORY":"SGP4","MEAN_MOTION":"15.06394214","CENTER_NAME":"EARTH","OBJECT_ID":"2021-044AD","EPOCH":"2022-02-25T21:19:54.854976","GP_ID":"197034518","MEAN_MOTION_DDOT":"0.0000000000000","RCS_SIZE":"LARGE","SEMIMAJOR_AXIS":"6925.366","INCLINATION":"53.0557","MEAN_MOTION_DOT":"-0.00000161","ELEMENT_SET_NO":"999","APOAPSIS":"548.306","FILE":"3323947","REF_FRAME":"TEME","ECCENTRICITY":"0.00015520","OBJECT_NAME":"STARLINK-2653","NORAD_CAT_ID":"48665","RA_OF_ASC_NODE":"243.2865","LAUNCH_DATE":"2021-05-26"},{"BSTAR":"0.00011845000000","OBJECT_TYPE":"PAYLOAD","MEAN_ELEMENT_THEORY":"SGP4","MEAN_MOTION":"15.06400236","REV_AT_EPOCH":"4184","COUNTRY_CODE":"US","EPHEMERIS_TYPE":"0","OBJECT_ID":"2021-044AE","EPOCH":"2022-02-25T18:56:34.669824","GP_ID":"197033766","CENTER_NAME":"EARTH","ELEMENT_SET_NO":"999","FILE":"3323947","APOAPSIS":"548.313","MEAN_MOTION_DDOT":"0.0000000000000","SEMIMAJOR_AXIS":"6925.348","RCS_SIZE":"LARGE","MEAN_MOTION_DOT":"0.00001483","INCLINATION":"53.0547","NORAD_CAT_ID":"48666","RA_OF_ASC_NODE":"243.7197","LAUNCH_DATE":"2021-05-26","REF_FRAME":"TEME","OBJECT_NAME":"STARLINK-2666","ECCENTRICITY":"0.00015890","TLE_LINE1":"1 48666U 21044AE  22056.78929016  .00001483  00000-0  11845-3 0  9996","TLE_LINE2":"2 48666  53.0547 243.7197 0001589  63.1126 297.0026 15.06400236 41841","PERIAPSIS":"546.112","TIME_SYSTEM":"UTC","ARG_OF_PERICENTER":"63.1126","MEAN_ANOMALY":"297.0026","DECAY_DATE":null,"CLASSIFICATION_TYPE":"U","SITE":"AFETR","PERIOD":"95.592"},{"ELEMENT_SET_NO":"999","FILE":"3323947","APOAPSIS":"548.446","MEAN_MOTION_DDOT":"0.0000000000000","SEMIMAJOR_AXIS":"6925.365","RCS_SIZE":"LARGE","INCLINATION":"53.0549","MEAN_MOTION_DOT":"0.00000346","NORAD_CAT_ID":"48667","RA_OF_ASC_NODE":"243.6488","LAUNCH_DATE":"2021-05-26","REF_FRAME":"TEME","OBJECT_NAME":"STARLINK-2735","ECCENTRICITY":"0.00017560","BSTAR":"0.00004214600000","OBJECT_TYPE":"PAYLOAD","MEAN_ELEMENT_THEORY":"SGP4","MEAN_MOTION":"15.06394573","REV_AT_EPOCH":"4185","COUNTRY_CODE":"US","EPHEMERIS_TYPE":"0","OBJECT_ID":"2021-044AF","EPOCH":"2022-02-25T19:19:11.134272","GP_ID":"197034016","CENTER_NAME":"EARTH","ARG_OF_PERICENTER":"72.5423","MEAN_ANOMALY":"287.5758","DECAY_DATE":null,"CLASSIFICATION_TYPE":"U","SITE":"AFETR","PERIOD":"95.592","TLE_LINE1":"1 48667U 21044AF  22056.80498998  .00000346  00000-0  42146-4 0  9996","TLE_LINE2":"2 48667  53.0549 243.6488 0001756  72.5423 287.5758 15.06394573 41859","PERIAPSIS":"546.014","TIME_SYSTEM":"UTC"},{"GP_ID":"197034263","EPOCH":"2022-02-25T19:13:51.949344","OBJECT_ID":"2021-044AG","CENTER_NAME":"EARTH","MEAN_MOTION":"15.06401374","MEAN_ELEMENT_THEORY":"SGP4","OBJECT_TYPE":"PAYLOAD","BSTAR":"0.00009965800000","COUNTRY_CODE":"US","EPHEMERIS_TYPE":"0","REV_AT_EPOCH":"4185","RA_OF_ASC_NODE":"243.6711","LAUNCH_DATE":"2021-05-26","NORAD_CAT_ID":"48668","ECCENTRICITY":"0.00016740","OBJECT_NAME":"STARLINK-2738","REF_FRAME":"TEME","FILE":"3323947","APOAPSIS":"548.369","ELEMENT_SET_NO":"999","INCLINATION":"53.0553","MEAN_MOTION_DOT":"0.00001203","SEMIMAJOR_AXIS":"6925.344","RCS_SIZE":"LARGE","MEAN_MOTION_DDOT":"0.0000000000000","TIME_SYSTEM":"UTC","TLE_LINE1":"1 48668U 21044AG  22056.80129571  .00001203  00000-0  99658-4 0  9998","PERIAPSIS":"546.050","TLE_LINE2":"2 48668  53.0553 243.6711 0001674  75.4389 284.6785 15.06401374 41852","SITE":"AFETR","CLASSIFICATION_TYPE":"U","PERIOD":"95.592","MEAN_ANOMALY":"284.6785","ARG_OF_PERICENTER":"75.4389","DECAY_DATE":null}];
